CCSDS_OMM_VERS,COMMENT,CREATION_DATE,ORIGINATOR,OBJECT_NAME,OBJECT_ID,CENTER_NAME,REF_FRAME,TIME_SYSTEM,MEAN_ELEMENT_THEORY,EPOCH,MEAN_MOTION,ECCENTRICITY,INCLINATION,RA_OF_ASC_NODE,ARG_OF_PERICENTER,MEAN_ANOMALY,EPHEMERIS_TYPE,CLASSIFICATION_TYPE,NORAD_CAT_ID,ELEMENT_SET_NO,REV_AT_EPOCH,BSTAR,MEAN_MOTION_DOT,MEAN_MOTION_DDOT,SEMIMAJOR_AXIS,PERIOD,APOAPSIS,PERIAPSIS,OBJECT_TYPE,RCS_SIZE,COUNTRY_CODE,LAUNCH_DATE,SITE,DECAY_DATE,FILE,GP_ID,TLE_LINE0,TLE_LINE1,TLE_LINE2
"2.0","GENERATED VIA SPACE-TRACK.ORG API","2020-05-07T01:13:12","18 SPCS","IRIDIUM 176","2019-002B","EARTH","TEME","UTC","SGP4","2020-05-06T18:13:56.926560","14.72251733","0.00023170","86.6166","206.5163","93.8532","266.2950","0","U","43923","999","7079","0.00001849700000","0.00000141","0.0000000000000","7032.025","97.809","655.520","652.261","PAYLOAD","LARGE","US","2019-01-11","AFWTR","","2745210","153510841","0 IRIDIUM 176","1 43923U 19002B   20127.75968665 +.00000141 +00000-0 +18497-4 0  9996","2 43923 086.6166 206.5163 0002317 093.8532 266.2950 14.72251733070790"
"2.0","GENERATED VIA SPACE-TRACK.ORG API","2020-05-06T22:36:09","18 SPCS","SL-18 DEB","1993-014BJ","EARTH","TEME","UTC","SGP4","2020-05-06T18:02:00.858048","14.80652272","0.00655550","75.7394","268.6583","326.6295","33.0766","0","U","35359","999","67677","0.00037886000000","0.00003000","0.0000000000000","7005.402","97.254","673.191","581.344","DEBRIS","SMALL","CIS","1993-03-25","PKMTR","","2745150","153490989","0 SL-18 DEB","1 35359U 93014BJ  20127.75139882  .00003000  00000-0  37886-3 0  9995","2 35359  75.7394 268.6583 0065555 326.6295  33.0766 14.80652272676774"
"2.0","GENERATED VIA SPACE-TRACK.ORG API","2020-05-06T22:56:09","18 SPCS","IRIDIUM 176","2019-002B","EARTH","TEME","UTC","SGP4","2020-05-06T16:36:04.513824","14.72251711","0.00023190","86.6166","206.5447","93.9092","266.2390","0","U","43923","999","7078","0.00001848800000","0.00000141","0.0000000000000","7032.025","97.809","655.521","652.260","PAYLOAD","LARGE","US","2019-01-11","AFWTR","","2745170","153491478","0 IRIDIUM 176","1 43923U 19002B   20127.69171891  .00000141  00000-0  18488-4 0  9996","2 43923  86.6166 206.5447 0002319  93.9092 266.2390 14.72251711 70782"
"2.0","GENERATED VIA SPACE-TRACK.ORG API","2020-05-06T15:58:32","18 SPCS","IRIDIUM 176","2019-002B","EARTH","TEME","UTC","SGP4","2020-05-06T05:10:57.616896","14.72251577","0.00023230","86.6166","206.7431","93.6067","266.5415","0","U","43923","999","7071","0.00001782600000","0.00000137","0.0000000000000","7032.026","97.809","655.524","652.257","PAYLOAD","LARGE","US","2019-01-11","AFWTR","","2745048","153486991","0 IRIDIUM 176","1 43923U 19002B   20127.21594464 +.00000137 +00000-0 +17826-4 0  9999","2 43923 086.6166 206.7431 0002323 093.6067 266.5415 14.72251577070715"
"2.0","GENERATED VIA SPACE-TRACK.ORG API","2020-05-06T02:51:36","18 SPCS","SL-18 DEB","1993-014BJ","EARTH","TEME","UTC","SGP4","2020-05-05T19:19:49.068192","14.80646506","0.00655340","75.7393","270.3288","329.0718","30.6614","0","U","35359","999","67597","0.00037535000000","0.00002971","0.0000000000000","7005.421","97.254","673.195","581.376","DEBRIS","SMALL","CIS","1993-03-25","PKMTR","","2744703","153452956","0 SL-18 DEB","1 35359U 93014BJ  20126.80542903 +.00002971 +00000-0 +37535-3 0  9999","2 35359 075.7393 270.3288 0065534 329.0718 030.6614 14.80646506675978"
"2.0","GENERATED VIA SPACE-TRACK.ORG API","2020-05-06T02:51:36","18 SPCS","IRIDIUM 176","2019-002B","EARTH","TEME","UTC","SGP4","2020-05-05T17:45:50.713056","14.72251449","0.00023190","86.6166","206.9415","93.6659","266.4823","0","U","43923","999","7064","0.00001698900000","0.00000132","0.0000000000000","7032.026","97.809","655.522","652.261","PAYLOAD","LARGE","US","2019-01-11","AFWTR","","2744703","153459274","0 IRIDIUM 176","1 43923U 19002B   20126.74017029 +.00000132 +00000-0 +16989-4 0  9997","2 43923 086.6166 206.9415 0002319 093.6659 266.4823 14.72251449070643"
"2.0","GENERATED VIA SPACE-TRACK.ORG API","2020-05-05T14:26:09","18 SPCS","IRIDIUM 176","2019-002B","EARTH","TEME","UTC","SGP4","2020-05-05T11:14:21.051744","14.72251390","0.00023190","86.6167","207.0548","93.5804","266.5678","0","U","43923","999","7060","0.00001736900000","0.00000134","0.0000000000000","7032.026","97.809","655.522","652.261","PAYLOAD","LARGE","US","2019-01-11","AFWTR","","2744367","153392896","0 IRIDIUM 176","1 43923U 19002B   20126.46829921  .00000134  00000-0  17369-4 0  9993","2 43923  86.6167 207.0548 0002319  93.5804 266.5678 14.72251390 70604"
"2.0","GENERATED VIA SPACE-TRACK.ORG API","2020-05-05T14:46:09","18 SPCS","SL-18 DEB","1993-014BJ","EARTH","TEME","UTC","SGP4","2020-05-05T09:36:01.062720","14.80643901","0.00655040","75.7391","271.0450","330.0864","29.6584","0","U","35359","999","67657","0.00036960000000","0.00002925","0.0000000000000","7005.429","97.254","673.182","581.406","DEBRIS","SMALL","CIS","1993-03-25","PKMTR","","2744452","153394970","0 SL-18 DEB","1 35359U 93014BJ  20126.40001230  .00002925  00000-0  36960-3 0  9998","2 35359  75.7391 271.0450 0065504 330.0864  29.6584 14.80643901676573"
"2.0","GENERATED VIA SPACE-TRACK.ORG API","2020-05-05T16:16:05","18 SPCS","IRIDIUM 176","2019-002B","EARTH","TEME","UTC","SGP4","2020-05-05T04:42:51.393024","14.72251319","0.00023210","86.6167","207.1682","93.6100","266.5383","0","U","43923","999","7056","0.00001659400000","0.00000129","0.0000000000000","7032.027","97.809","655.524","652.260","PAYLOAD","LARGE","US","2019-01-11","AFWTR","","2744523","153415580","0 IRIDIUM 176","1 43923U 19002B   20126.19642816 +.00000129 +00000-0 +16594-4 0  9992","2 43923 086.6167 207.1682 0002321 093.6100 266.5383 14.72251319070566"
"2.0","GENERATED VIA SPACE-TRACK.ORG API","2020-05-05T16:16:05","18 SPCS","SL-18 DEB","1993-014BJ","EARTH","TEME","UTC","SGP4","2020-05-05T01:29:31.017984","14.80641485","0.00655030","75.7391","271.6416","330.9566","28.7981","0","U","35359","999","67586","0.00035756000000","0.00002829","0.0000000000000","7005.437","97.255","673.189","581.414","DEBRIS","SMALL","CIS","1993-03-25","PKMTR","","2744523","153409262","0 SL-18 DEB","1 35359U 93014BJ  20126.06216456 +.00002829 +00000-0 +35756-3 0  9993","2 35359 075.7391 271.6416 0065503 330.9566 028.7981 14.80641485675865"
"2.0","GENERATED VIA SPACE-TRACK.ORG API","2020-05-05T02:16:57","18 SPCS","IRIDIUM 176","2019-002B","EARTH","TEME","UTC","SGP4","2020-05-04T17:17:44.481408","14.72251220","0.00023150","86.6167","207.3666","93.5377","266.6105","0","U","43923","999","7049","0.00001631500000","0.00000128","0.0000000000000","7032.027","97.809","655.520","652.264","PAYLOAD","LARGE","US","2019-01-11","AFWTR","","2744156","153386657","0 IRIDIUM 176","1 43923U 19002B   20125.72065372 +.00000128 +00000-0 +16315-4 0  9996","2 43923 086.6167 207.3666 0002315 093.5377 266.6105 14.72251220070494"
"2.0","GENERATED VIA SPACE-TRACK.ORG API","2020-05-04T17:10:35","18 SPCS","IRIDIUM 176","2019-002B","EARTH","TEME","UTC","SGP4","2020-05-04T12:24:07.231968","14.72251182","0.00023150","86.6167","207.4516","93.4110","266.7371","0","U","43923","999","7046","0.00001674400000","0.00000130","0.0000000000000","7032.027","97.809","655.520","652.264","PAYLOAD","LARGE","US","2019-01-11","AFWTR","","2743994","153363371","0 IRIDIUM 176","1 43923U 19002B   20125.51675037 +.00000130 +00000-0 +16744-4 0  9997","2 43923 086.6167 207.4516 0002315 093.4110 266.7371 14.72251182070463"
"2.0","GENERATED VIA SPACE-TRACK.ORG API","2020-05-04T14:46:10","18 SPCS","SL-18 DEB","1993-014BJ","EARTH","TEME","UTC","SGP4","2020-05-04T09:16:30.809280","14.80638564","0.00655070","75.7392","272.8348","332.7257","27.0493","0","U","35359","999","67642","0.00040370000000","0.00003197","0.0000000000000","7005.446","97.255","673.201","581.420","DEBRIS","SMALL","CIS","1993-03-25","PKMTR","","2743895","153342249","0 SL-18 DEB","1 35359U 93014BJ  20125.38646770  .00003197  00000-0  40370-3 0  9990","2 35359  75.7392 272.8348 0065507 332.7257  27.0493 14.80638564676421"
"2.0","GENERATED VIA SPACE-TRACK.ORG API","2020-05-03T22:26:09","18 SPCS","IRIDIUM 176","2019-002B","EARTH","TEME","UTC","SGP4","2020-05-03T18:27:30.650400","14.72251035","0.00023120","86.6168","207.7634","93.2149","266.9332","0","U","43923","999","7035","0.00001671500000","0.00000130","0.0000000000000","7032.028","97.809","655.518","652.267","PAYLOAD","LARGE","US","2019-01-11","AFWTR","","2743475","153312827","0 IRIDIUM 176","1 43923U 19002B   20124.76910475  .00000130  00000-0  16715-4 0  9999","2 43923  86.6168 207.7634 0002312  93.2149 266.9332 14.72251035 70359"
"2.0","GENERATED VIA SPACE-TRACK.ORG API","2020-05-03T16:51:36","18 SPCS","IRIDIUM 176","2019-002B","EARTH","TEME","UTC","SGP4","2020-05-03T05:24:31.316544","14.72250901","0.00023170","86.6168","207.9902","93.1964","266.9518","0","U","43923","999","7027","0.00001666100000","0.00000130","0.0000000000000","7032.028","97.809","655.522","652.264","PAYLOAD","LARGE","US","2019-01-11","AFWTR","","2743435","153310806","0 IRIDIUM 176","1 43923U 19002B   20124.22536246 +.00000130 +00000-0 +16661-4 0  9990","2 43923 086.6168 207.9902 0002317 093.1964 266.9518 14.72250901070276"
"2.0","GENERATED VIA SPACE-TRACK.ORG API","2020-05-03T16:51:36","18 SPCS","SL-18 DEB","1993-014BJ","EARTH","TEME","UTC","SGP4","2020-05-03T02:27:47.995776","14.80630170","0.00655090","75.7393","275.1020","336.0155","23.7982","0","U","35359","999","67623","0.00038363000000","0.00003036","0.0000000000000","7005.472","97.255","673.229","581.445","DEBRIS","SMALL","CIS","1993-03-25","PKMTR","","2743435","153304489","0 SL-18 DEB","1 35359U 93014BJ  20124.10263884 +.00003036 +00000-0 +38363-3 0  9991","2 35359 075.7393 275.1020 0065509 336.0155 023.7982 14.80630170676231"
